{"type": "FeatureCollection", "features": [ {"type": "Feature", "properties": {"norad_id": 36441, "name": "COSMOS 2251 DEB", "group": "cosmos-2251-debris", "lat": -59.98319833222598, "lon": -55.802340129298585, "alt_km": 606.0412756969081, "timestamp": "2025-12-20T03:42:47.791545+00:00", "meta": {"OBJECT_NAME": "COSMOS 2251 DEB", "OBJECT_ID": "1993-036BAQ", "EPOCH": "2025-12-18T05:47:29.908032", "MEAN_MOTION": 15.06846048, "ECCENTRICITY": 0.01082047, "INCLINATION": 73.8354, "RA_OF_ASC_NODE": 338.3111, "ARG_OF_PERICENTER": 76.0854, "MEAN_ANOMALY": 285.2342, "EPHEMERIS_TYPE": 0, "CLASSIFICATION_TYPE": "U", "NORAD_CAT_ID": 36441, "ELEMENT_SET_NO": 999, "REV_AT_EPOCH": 87048, "BSTAR": 0.0004365334, "MEAN_MOTION_DOT": 7.404e-05, "MEAN_MOTION_DDOT": 0}, "tle": {"line1": "1 36441U 93036BAQ 25352.24131838  .00007404  00000+0  43653-3 0  9994", "line2": "2 36441  73.8354 338.3111 0108204  76.0854 285.2342 15.06846048870480"}}, "geometry": {"type": "Point", "coordinates": [-55.802340129298585, -59.98319833222598]}}, {"type": "Feature", "properties": {"norad_id": 36442, "name": "COSMOS 2251 DEB", "group": "cosmos-2251-debris", "lat": 6.49561260246597, "lon": 25.24631561440016, "alt_km": 467.7641546653631, "timestamp": "2025-12-20T03:42:47.791555+00:00", "meta": {"OBJECT_NAME": "COSMOS 2251 DEB", "OBJECT_ID": "1993-036BAR", "EPOCH": "2025-12-19T18:16:49.293696", "MEAN_MOTION": 15.319666, "ECCENTRICITY": 0.0008127, "INCLINATION": 73.95, "RA_OF_ASC_NODE": 24.211, "ARG_OF_PERICENTER": 320.5709, "MEAN_ANOMALY": 39.4901, "EPHEMERIS_TYPE": 0, "CLASSIFICATION_TYPE": "U", "NORAD_CAT_ID": 36442, "ELEMENT_SET_NO": 999, "REV_AT_EPOCH": 86023, "BSTAR": 0.0032889, "MEAN_MOTION_DOT": 0.00103009, "MEAN_MOTION_DDOT": 0}, "tle": {"line1": "1 36442U 93036BAR 25353.76168164  .00103009  00000+0  32889-2 0  9991", "line2": "2 36442  73.9500  24.2110 0008127 320.5709  39.4901 15.31966600860231"}}, "geometry": {"type": "Point", "coordinates": [25.24631561440016, 6.49561260246597]}}, {"type": "Feature", "properties": {"norad_id": 36451, "name": "COSMOS 2251 DEB", "group": "cosmos-2251-debris", "lat": 44.867773330994424, "lon": 125.26719057950228, "alt_km": 695.9084436214489, "timestamp": "2025-12-20T03:42:47.791565+00:00", "meta": {"OBJECT_NAME": "COSMOS 2251 DEB", "OBJECT_ID": "1993-036BBA", "EPOCH": "2025-12-17T15:51:47.903904", "MEAN_MOTION": 14.18761243, "ECCENTRICITY": 0.01833733, "INCLINATION": 73.9538, "RA_OF_ASC_NODE": 326.3887, "ARG_OF_PERICENTER": 149.6881, "MEAN_ANOMALY": 211.5024, "EPHEMERIS_TYPE": 0, "CLASSIFICATION_TYPE": "U", "NORAD_CAT_ID": 36451, "ELEMENT_SET_NO": 999, "REV_AT_EPOCH": 84295, "BSTAR": 0.0004725236, "MEAN_MOTION_DOT": 1.135e-05, "MEAN_MOTION_DDOT": 0}, "tle": {"line1": "1 36451U 93036BBA 25351.66097111  .00001135  00000+0  47252-3 0  9999", "line2": "2 36451  73.9538 326.3887 0183373 149.6881 211.5024 14.18761243842955"}}, "geometry": {"type": "Point", "coordinates": [125.26719057950228, 44.867773330994424]}}, {"type": "Feature", "properties": {"norad_id": 36453, "name": "COSMOS 2251 DEB", "group": "cosmos-2251-debris", "lat": -29.604323873506047, "lon": -32.26013106295141, "alt_km": 771.9745629481104, "timestamp": "2025-12-20T03:42:47.791575+00:00", "meta": {"OBJECT_NAME": "COSMOS 2251 DEB", "OBJECT_ID": "1993-036BBC", "EPOCH": "2025-12-18T09:33:51.275232", "MEAN_MOTION": 14.52645427, "ECCENTRICITY": 0.00705018, "INCLINATION": 73.9232, "RA_OF_ASC_NODE": 141.6428, "ARG_OF_PERICENTER": 43.415, "MEAN_ANOMALY": 346.844, "EPHEMERIS_TYPE": 0, "CLASSIFICATION_TYPE": "U", "NORAD_CAT_ID": 36453, "ELEMENT_SET_NO": 999, "REV_AT_EPOCH": 84550, "BSTAR": 0.00066418144, "MEAN_MOTION_DOT": 2.781e-05, "MEAN_MOTION_DDOT": 0}, "tle": {"line1": "1 36453U 93036BBC 25352.39851013  .00002781  00000+0  66418-3 0  9994", "line2": "2 36453  73.9232 141.6428 0070501  43.4150 346.8440 14.52645427845506"}}, "geometry": {"type": "Point", "coordinates": [-32.26013106295141, -29.604323873506047]}}, {"type": "Feature", "properties": {"norad_id": 36459, "name": "COSMOS 2251 DEB", "group": "cosmos-2251-debris", "lat": 27.251560283256616, "lon": 157.92584656170527, "alt_km": 775.2520095457394, "timestamp": "2025-12-20T03:42:47.791585+00:00", "meta": {"OBJECT_NAME": "COSMOS 2251 DEB", "OBJECT_ID": "1993-036BBJ", "EPOCH": "2025-12-19T16:55:06.162816", "MEAN_MOTION": 14.26452248, "ECCENTRICITY": 0.0113269, "INCLINATION": 74.0467, "RA_OF_ASC_NODE": 347.2106, "ARG_OF_PERICENTER": 81.068, "MEAN_ANOMALY": 280.327, "EPHEMERIS_TYPE": 0, "CLASSIFICATION_TYPE": "U", "NORAD_CAT_ID": 36459, "ELEMENT_SET_NO": 999, "REV_AT_EPOCH": 7981, "BSTAR": 0.00090665, "MEAN_MOTION_DOT": 2.312e-05, "MEAN_MOTION_DDOT": 0}, "tle": {"line1": "1 36459U 93036BBJ 25353.70493244  .00002312  00000+0  90665-3 0  9995", "line2": "2 36459  74.0467 347.2106 0113269  81.0680 280.3270 14.26452248 79810"}}, "geometry": {"type": "Point", "coordinates": [157.92584656170527, 27.251560283256616]}}, {"type": "Feature", "properties": {"norad_id": 36470, "name": "COSMOS 2251 DEB", "group": "cosmos-2251-debris", "lat": -18.024562934113945, "lon": 64.39437643012582, "alt_km": 557.7213587853739, "timestamp": "2025-12-20T03:42:47.791595+00:00", "meta": {"OBJECT_NAME": "COSMOS 2251 DEB", "OBJECT_ID": "1993-036BBV", "EPOCH": "2025-12-15T00:13:00.014016", "MEAN_MOTION": 15.07582269, "ECCENTRICITY": 0.00222568, "INCLINATION": 73.8449, "RA_OF_ASC_NODE": 249.6845, "ARG_OF_PERICENTER": 78.1368, "MEAN_ANOMALY": 282.2316, "EPHEMERIS_TYPE": 0, "CLASSIFICATION_TYPE": "U", "NORAD_CAT_ID": 36470, "ELEMENT_SET_NO": 999, "REV_AT_EPOCH": 66128, "BSTAR": 0.0018721064, "MEAN_MOTION_DOT": 0.0002872, "MEAN_MOTION_DDOT": 0}, "tle": {"line1": "1 36470U 93036BBV 25349.00902794  .00028720  00000+0  18721-2 0  9994", "line2": "2 36470  73.8449 249.6845 0022256  78.1368 282.2316 15.07582269661287"}}, "geometry": {"type": "Point", "coordinates": [64.39437643012582, -18.024562934113945]}}, {"type": "Feature", "properties": {"norad_id": 36528, "name": "COSMOS 2251 DEB", "group": "cosmos-2251-debris", "lat": 15.551896028483181, "lon": 136.28452067396987, "alt_km": 847.9153077792016, "timestamp": "2025-12-20T03:42:47.791617+00:00", "meta": {"OBJECT_NAME": "COSMOS 2251 DEB", "OBJECT_ID": "1993-036BCN", "EPOCH": "2025-12-14T16:44:10.040352", "MEAN_MOTION": 14.30658136, "ECCENTRICITY": 0.00847741, "INCLINATION": 74.0159, "RA_OF_ASC_NODE": 141.651, "ARG_OF_PERICENTER": 190.7529, "MEAN_ANOMALY": 169.1813, "EPHEMERIS_TYPE": 0, "CLASSIFICATION_TYPE": "U", "NORAD_CAT_ID": 36528, "ELEMENT_SET_NO": 999, "REV_AT_EPOCH": 64455, "BSTAR": 0.0012089622, "MEAN_MOTION_DOT": 3.261e-05, "MEAN_MOTION_DDOT": 0}, "tle": {"line1": "1 36528U 93036BCN 25348.69733843  .00003261  00000+0  12090-2 0  9995", "line2": "2 36528  74.0159 141.6510 0084774 190.7529 169.1813 14.30658136644553"}}, "geometry": {"type": "Point", "coordinates": [136.28452067396987, 15.551896028483181]}}, {"type": "Feature", "properties": {"norad_id": 36533, "name": "COSMOS 2251 DEB", "group": "cosmos-2251-debris", "lat": -32.55214077010418, "lon": 90.33951950289016, "alt_km": 724.1100711541721, "timestamp": "2025-12-20T03:42:47.791628+00:00", "meta": {"OBJECT_NAME": "COSMOS 2251 DEB", "OBJECT_ID": "1993-036BCT", "EPOCH": "2025-12-18T23:43:03.049536", "MEAN_MOTION": 14.4983849, "ECCENTRICITY": 0.00492811, "INCLINATION": 74.0116, "RA_OF_ASC_NODE": 103.0778, "ARG_OF_PERICENTER": 251.1525, "MEAN_ANOMALY": 108.4287, "EPHEMERIS_TYPE": 0, "CLASSIFICATION_TYPE": "U", "NORAD_CAT_ID": 36533, "ELEMENT_SET_NO": 999, "REV_AT_EPOCH": 84575, "BSTAR": 0.00037902129, "MEAN_MOTION_DOT": 1.457e-05, "MEAN_MOTION_DDOT": 0}, "tle": {"line1": "1 36533U 93036BCT 25352.98822974  .00001457  00000+0  37902-3 0  9997", "line2": "2 36533  74.0116 103.0778 0049281 251.1525 108.4287 14.49838490845751"}}, "geometry": {"type": "Point", "coordinates": [90.33951950289016, -32.55214077010418]}}, {"type": "Feature", "properties": {"norad_id": 36539, "name": "COSMOS 2251 DEB", "group": "cosmos-2251-debris", "lat": 56.15237945223308, "lon": 66.32450699458934, "alt_km": 700.4200721605039, "timestamp": "2025-12-20T03:42:47.791639+00:00", "meta": {"OBJECT_NAME": "COSMOS 2251 DEB", "OBJECT_ID": "1993-036BCZ", "EPOCH": "2025-12-19T14:16:37.689024", "MEAN_MOTION": 14.59341188, "ECCENTRICITY": 0.0026775, "INCLINATION": 74.0235, "RA_OF_ASC_NODE": 42.1029, "ARG_OF_PERICENTER": 186.0684, "MEAN_ANOMALY": 174.0161, "EPHEMERIS_TYPE": 0, "CLASSIFICATION_TYPE": "U", "NORAD_CAT_ID": 36539, "ELEMENT_SET_NO": 999, "REV_AT_EPOCH": 84047, "BSTAR": 0.00042521, "MEAN_MOTION_DOT": 1.992e-05, "MEAN_MOTION_DDOT": 0}, "tle": {"line1": "1 36539U 93036BCZ 25353.59488066  .00001992  00000+0  42521-3 0  9998", "line2": "2 36539  74.0235  42.1029 0026775 186.0684 174.0161 14.59341188840474"}}, "geometry": {"type": "Point", "coordinates": [66.32450699458934, 56.15237945223308]}}, {"type": "Feature", "properties": {"norad_id": 36540, "name": "COSMOS 2251 DEB", "group": "cosmos-2251-debris", "lat": 0.3830445948077353, "lon": 166.50585886715083, "alt_km": 706.4235361449419, "timestamp": "2025-12-20T03:42:47.791650+00:00", "meta": {"OBJECT_NAME": "COSMOS 2251 DEB", "OBJECT_ID": "1993-036BDA", "EPOCH": "2025-12-17T13:09:26.426592", "MEAN_MOTION": 14.58526935, "ECCENTRICITY": 0.00148115, "INCLINATION": 74.0276, "RA_OF_ASC_NODE": 171.3586, "ARG_OF_PERICENTER": 241.3475, "MEAN_ANOMALY": 118.62, "EPHEMERIS_TYPE": 0, "CLASSIFICATION_TYPE": "U", "NORAD_CAT_ID": 36540, "ELEMENT_SET_NO": 999, "REV_AT_EPOCH": 86080, "BSTAR": 0.0008456948, "MEAN_MOTION_DOT": 3.909e-05, "MEAN_MOTION_DDOT": 0}, "tle": {"line1": "1 36540U 93036BDA 25351.54822253  .00003909  00000+0  84569-3 0  9991", "line2": "2 36540  74.0276 171.3586 0014811 241.3475 118.6200 14.58526935860806"}}, "geometry": {"type": "Point", "coordinates": [166.50585886715083, 0.3830445948077353]}}]}